CCSDS_OMM_VERS = 2.0
CREATION_DATE  = 
ORIGINATOR     = 

OBJECT_NAME    = UNKNOWN
OBJECT_ID      = 
CENTER_NAME    = EARTH
REF_FRAME      = TEME
TIME_SYSTEM    = UTC
MEAN_ELEMENT_THEORY = SGP/SGP4

EPOCH          = 2025-11-17T04:05:30.799968
MEAN_MOTION    = 14.93560134
ECCENTRICITY   = .0017322
INCLINATION    = 82.8671
RA_OF_ASC_NODE = 279.1304
ARG_OF_PERICENTER = 121.2799
MEAN_ANOMALY   = 239.0121

EPHEMERIS_TYPE = 0
CLASSIFICATION_TYPE = U
NORAD_CAT_ID   = 87725
ELEMENT_SET_NO = 999
REV_AT_EPOCH   = 63010
BSTAR          = .80649E-2
MEAN_MOTION_DOT = .86216E-3
MEAN_MOTION_DDOT = 0

CCSDS_OMM_VERS = 2.0
CREATION_DATE  = 
ORIGINATOR     = 

OBJECT_NAME    = UNKNOWN
OBJECT_ID      = 
CENTER_NAME    = EARTH
REF_FRAME      = TEME
TIME_SYSTEM    = UTC
MEAN_ELEMENT_THEORY = SGP/SGP4

EPOCH          = 2025-11-12T02:07:55.129728
MEAN_MOTION    = 13.74497763
ECCENTRICITY   = .0031412
INCLINATION    = 82.9442
RA_OF_ASC_NODE = 256.7759
ARG_OF_PERICENTER = 89.0760
MEAN_ANOMALY   = 271.3995

EPHEMERIS_TYPE = 0
CLASSIFICATION_TYPE = U
NORAD_CAT_ID   = 87730
ELEMENT_SET_NO = 999
REV_AT_EPOCH   = 58112
BSTAR          = .12968E-3
MEAN_MOTION_DOT = .139E-5
MEAN_MOTION_DDOT = 0

CCSDS_OMM_VERS = 2.0
CREATION_DATE  = 
ORIGINATOR     = 

OBJECT_NAME    = UNKNOWN
OBJECT_ID      = 
CENTER_NAME    = EARTH
REF_FRAME      = TEME
TIME_SYSTEM    = UTC
MEAN_ELEMENT_THEORY = SGP/SGP4

EPOCH          = 2025-11-09T14:27:38.949696
MEAN_MOTION    = 13.72332957
ECCENTRICITY   = .0132391
INCLINATION    = 99.3770
RA_OF_ASC_NODE = 186.1152
ARG_OF_PERICENTER = 276.2484
MEAN_ANOMALY   = 82.3598

EPHEMERIS_TYPE = 0
CLASSIFICATION_TYPE = U
NORAD_CAT_ID   = 87737
ELEMENT_SET_NO = 999
REV_AT_EPOCH   = 59931
BSTAR          = .12433E-3
MEAN_MOTION_DOT = .76E-6
MEAN_MOTION_DDOT = 0

CCSDS_OMM_VERS = 2.0
CREATION_DATE  = 
ORIGINATOR     = 

OBJECT_NAME    = UNKNOWN
OBJECT_ID      = 
CENTER_NAME    = EARTH
REF_FRAME      = TEME
TIME_SYSTEM    = UTC
MEAN_ELEMENT_THEORY = SGP/SGP4

EPOCH          = 2025-11-17T04:08:00.683232
MEAN_MOTION    = 14.34301001
ECCENTRICITY   = .0361156
INCLINATION    = 65.6734
RA_OF_ASC_NODE = 232.8085
ARG_OF_PERICENTER = 90.2935
MEAN_ANOMALY   = 31.5297

EPHEMERIS_TYPE = 0
CLASSIFICATION_TYPE = U
NORAD_CAT_ID   = 87764
ELEMENT_SET_NO = 999
REV_AT_EPOCH   = 61545
BSTAR          = .26378E-2
MEAN_MOTION_DOT = .15502E-3
MEAN_MOTION_DDOT = 0

CCSDS_OMM_VERS = 2.0
CREATION_DATE  = 
ORIGINATOR     = 

OBJECT_NAME    = UNKNOWN
OBJECT_ID      = 
CENTER_NAME    = EARTH
REF_FRAME      = TEME
TIME_SYSTEM    = UTC
MEAN_ELEMENT_THEORY = SGP/SGP4

EPOCH          = 2025-11-14T18:53:46.923360
MEAN_MOTION    = 13.19506386
ECCENTRICITY   = .0119835
INCLINATION    = 100.7451
RA_OF_ASC_NODE = 154.3454
ARG_OF_PERICENTER = 65.5503
MEAN_ANOMALY   = 295.8057

EPHEMERIS_TYPE = 0
CLASSIFICATION_TYPE = U
NORAD_CAT_ID   = 87771
ELEMENT_SET_NO = 999
REV_AT_EPOCH   = 53140
BSTAR          = .57475E-3
MEAN_MOTION_DOT = .192E-5
MEAN_MOTION_DDOT = 0

CCSDS_OMM_VERS = 2.0
CREATION_DATE  = 
ORIGINATOR     = 

OBJECT_NAME    = UNKNOWN
OBJECT_ID      = 
CENTER_NAME    = EARTH
REF_FRAME      = TEME
TIME_SYSTEM    = UTC
MEAN_ELEMENT_THEORY = SGP/SGP4

EPOCH          = 2025-11-17T21:58:13.077696
MEAN_MOTION    = 13.00255850
ECCENTRICITY   = .0064883
INCLINATION    = 102.3320
RA_OF_ASC_NODE = 190.2530
ARG_OF_PERICENTER = 289.5826
MEAN_ANOMALY   = 69.8273

EPHEMERIS_TYPE = 0
CLASSIFICATION_TYPE = U
NORAD_CAT_ID   = 87782
ELEMENT_SET_NO = 999
REV_AT_EPOCH   = 56476
BSTAR          = .10851E-1
MEAN_MOTION_DOT = .3257E-4
MEAN_MOTION_DDOT = 0

CCSDS_OMM_VERS = 2.0
CREATION_DATE  = 
ORIGINATOR     = 

OBJECT_NAME    = UNKNOWN
OBJECT_ID      = 
CENTER_NAME    = EARTH
REF_FRAME      = TEME
TIME_SYSTEM    = UTC
MEAN_ELEMENT_THEORY = SGP/SGP4

EPOCH          = 2025-11-17T01:51:18.650880
MEAN_MOTION    = 13.16431565
ECCENTRICITY   = .0233072
INCLINATION    = 99.6654
RA_OF_ASC_NODE = 77.3897
ARG_OF_PERICENTER = 66.3765
MEAN_ANOMALY   = 296.1634

EPHEMERIS_TYPE = 0
CLASSIFICATION_TYPE = U
NORAD_CAT_ID   = 87843
ELEMENT_SET_NO = 999
REV_AT_EPOCH   = 56078
BSTAR          = .58301E-2
MEAN_MOTION_DOT = .2519E-4
MEAN_MOTION_DDOT = 0

CCSDS_OMM_VERS = 2.0
CREATION_DATE  = 
ORIGINATOR     = 

OBJECT_NAME    = UNKNOWN
OBJECT_ID      = 
CENTER_NAME    = EARTH
REF_FRAME      = TEME
TIME_SYSTEM    = UTC
MEAN_ELEMENT_THEORY = SGP/SGP4

EPOCH          = 2025-11-17T03:33:53.195040
MEAN_MOTION    = 12.88837291
ECCENTRICITY   = .0576958
INCLINATION    = 98.8519
RA_OF_ASC_NODE = 283.6666
ARG_OF_PERICENTER = 312.7713
MEAN_ANOMALY   = 42.6203

EPHEMERIS_TYPE = 0
CLASSIFICATION_TYPE = U
NORAD_CAT_ID   = 87845
ELEMENT_SET_NO = 999
REV_AT_EPOCH   = 56191
BSTAR          = .55102E-2
MEAN_MOTION_DOT = .2923E-4
MEAN_MOTION_DDOT = 0

CCSDS_OMM_VERS = 2.0
CREATION_DATE  = 
ORIGINATOR     = 

OBJECT_NAME    = UNKNOWN
OBJECT_ID      = 
CENTER_NAME    = EARTH
REF_FRAME      = TEME
TIME_SYSTEM    = UTC
MEAN_ELEMENT_THEORY = SGP/SGP4

EPOCH          = 2025-11-15T13:10:41.857248
MEAN_MOTION    = 14.40432249
ECCENTRICITY   = .0034768
INCLINATION    = 99.1562
RA_OF_ASC_NODE = 77.1413
ARG_OF_PERICENTER = 346.4973
MEAN_ANOMALY   = 13.5280

EPHEMERIS_TYPE = 0
CLASSIFICATION_TYPE = U
NORAD_CAT_ID   = 87878
ELEMENT_SET_NO = 999
REV_AT_EPOCH   = 60738
BSTAR          = .15819E-2
MEAN_MOTION_DOT = .5016E-4
MEAN_MOTION_DDOT = 0

CCSDS_OMM_VERS = 2.0
CREATION_DATE  = 
ORIGINATOR     = 

OBJECT_NAME    = UNKNOWN
OBJECT_ID      = 
CENTER_NAME    = EARTH
REF_FRAME      = TEME
TIME_SYSTEM    = UTC
MEAN_ELEMENT_THEORY = SGP/SGP4

EPOCH          = 2025-11-16T02:27:20.995776
MEAN_MOTION    = 14.05958868
ECCENTRICITY   = .0154846
INCLINATION    = 98.7343
RA_OF_ASC_NODE = 64.8822
ARG_OF_PERICENTER = 142.9336
MEAN_ANOMALY   = 218.2648

EPHEMERIS_TYPE = 0
CLASSIFICATION_TYPE = U
NORAD_CAT_ID   = 87884
ELEMENT_SET_NO = 999
REV_AT_EPOCH   = 61462
BSTAR          = .34551E-3
MEAN_MOTION_DOT = .589E-5
MEAN_MOTION_DDOT = 0

CCSDS_OMM_VERS = 2.0
CREATION_DATE  = 
ORIGINATOR     = 

OBJECT_NAME    = UNKNOWN
OBJECT_ID      = 
CENTER_NAME    = EARTH
REF_FRAME      = TEME
TIME_SYSTEM    = UTC
MEAN_ELEMENT_THEORY = SGP/SGP4

EPOCH          = 2025-10-31T20:44:07.492704
MEAN_MOTION    = 13.73099371
ECCENTRICITY   = .0031579
INCLINATION    = 82.9364
RA_OF_ASC_NODE = 330.6631
ARG_OF_PERICENTER = 150.2212
MEAN_ANOMALY   = 28.1460

EPHEMERIS_TYPE = 0
CLASSIFICATION_TYPE = U
NORAD_CAT_ID   = 87934
ELEMENT_SET_NO = 999
REV_AT_EPOCH   = 59856
BSTAR          = .85338E-4
MEAN_MOTION_DOT = .94E-6
MEAN_MOTION_DDOT = 0

CCSDS_OMM_VERS = 2.0
CREATION_DATE  = 
ORIGINATOR     = 

OBJECT_NAME    = UNKNOWN
OBJECT_ID      = 
CENTER_NAME    = EARTH
REF_FRAME      = TEME
TIME_SYSTEM    = UTC
MEAN_ELEMENT_THEORY = SGP/SGP4

EPOCH          = 2025-11-17T19:29:52.393344
MEAN_MOTION    = 12.34857990
ECCENTRICITY   = .0884316
INCLINATION    = 28.6271
RA_OF_ASC_NODE = 4.7451
ARG_OF_PERICENTER = 228.6492
MEAN_ANOMALY   = 123.4604

EPHEMERIS_TYPE = 0
CLASSIFICATION_TYPE = U
NORAD_CAT_ID   = 87991
ELEMENT_SET_NO = 999
REV_AT_EPOCH   = 51991
BSTAR          = .51775E-2
MEAN_MOTION_DOT = .2584E-4
MEAN_MOTION_DDOT = 0

