UNKNOWN                 
1 87725U          25321.17049537  .00086216  00000+0  80649-2 0  9999
2 87725  82.8671 279.1304 0017322 121.2799 239.0121 14.93560134630109
UNKNOWN                 
1 87730U          25316.08883252  .00000139  00000+0  12968-3 0  9999
2 87730  82.9442 256.7759 0031412  89.0760 271.3995 13.74497763581122
UNKNOWN                 
1 87737U          25313.60253414  .00000076  00000+0  12433-3 0  9999
2 87737  99.3770 186.1152 0132391 276.2484  82.3598 13.72332957599319
UNKNOWN                 
1 87764U          25321.17223013  .00015502  00000+0  26378-2 0  9994
2 87764  65.6734 232.8085 0361156  90.2935  31.5297 14.34301001615458
UNKNOWN                 
1 87771U          25318.78734865  .00000192  00000+0  57475-3 0  9999
2 87771 100.7451 154.3454 0119835  65.5503 295.8057 13.19506386531408
UNKNOWN                 
1 87782U          25321.91542914  .00003257  00000+0  10851-1 0  9992
2 87782 102.3320 190.2530 0064883 289.5826  69.8273 13.00255850564766
UNKNOWN                 
1 87843U          25321.07729920  .00002519  00000+0  58301-2 0  9994
2 87843  99.6654  77.3897 0233072  66.3765 296.1634 13.16431565560784
UNKNOWN                 
1 87845U          25321.14853235  .00002923  00000+0  55102-2 0  9996
2 87845  98.8519 283.6666 0576958 312.7713  42.6203 12.88837291561913
UNKNOWN                 
1 87878U          25319.54909557  .00005016  00000+0  15819-2 0  9999
2 87878  99.1562  77.1413 0034768 346.4973  13.5280 14.40432249607385
UNKNOWN                 
1 87884U          25320.10232634  .00000589  00000+0  34551-3 0  9990
2 87884  98.7343  64.8822 0154846 142.9336 218.2648 14.05958868614621
UNKNOWN                 
1 87934U          25304.86397561  .00000094  00000+0  85338-4 0  9993
2 87934  82.9364 330.6631 0031579 150.2212  28.1460 13.73099371598562
UNKNOWN                 
1 87991U          25321.81241196  .00002584  00000+0  51775-2 0  9994
2 87991  28.6271   4.7451 0884316 228.6492 123.4604 12.34857990519919
